HIMAWARI-8              
1 40267U 14060A   24216.55312608 -.00000287  00000+0  00000+0 0  9991
2 40267   0.0261 166.5282 0000970  33.0235  92.8274  1.00270619 35918
